ISIS 1                  
1 03669U 69009A   17345.87723333  .00000060  00000-0  30133-4 0  9994
2 03669  88.4272 128.6649 1712892  38.2034 332.8730 11.29446211  8682
